{"type": "FeatureCollection", "signature": "5b8ddcbcda87c0bfe3001ff010ff658019954feb", "features": [{"type": "Feature", "properties": {"value": "Aravis", "label": "les Aravis"}, "geometry": {"type": "Polygon", "coordinates": [[[6.486571450649069, 45.776521669897875], [6.482231047034467, 45.76834309477348], [6.474776875609387, 45.76183887361156], [6.469379677195481, 45.75406905224122], [6.441548173717285, 45.74999714817145], [6.421796784152113, 45.74435863670387], [6.40900327045649, 45.74780446139027], [6.380273976543513, 45.76456066664698], [6.36834263045131, 45.7664111478937], [6.364568366438612, 45.76563836914179], [6.335160007195793, 45.799153349684715], [6.32932436936972, 45.84232493153719], [6.320795360239305, 45.87171249494381], [6.322815388717561, 45.88530680231311], [6.38139621458699, 45.920605208822806], [6.403840975456502, 45.92310336037855], [6.420450098499941, 45.944020963802096], [6.458942863391151, 45.93691922937777], [6.489355514369347, 45.934187550850304], [6.505291294586701, 45.94511345759243], [6.523920446108397, 45.95338449767726], [6.535367274151848, 45.96103021031968], [6.536938407412713, 45.974446665629955], [6.544120730890958, 45.98863960898209], [6.541202911977921, 46.00049026800795], [6.533796140890981, 46.01280602627487], [6.556240901760495, 46.026366320002445], [6.539182883499666, 46.04786728193735], [6.577338976977837, 46.055967465970795], [6.606068270890813, 46.04693284279612], [6.619984022629912, 46.03758512567575], [6.633226431542921, 45.99542275512474], [6.63098195545597, 45.96282445941929], [6.646468840455934, 45.93629485757778], [6.653202268716792, 45.89733577118076], [6.646244392847242, 45.88421313050275], [6.610781670673412, 45.85053312791218], [6.526578649183665, 45.816641766767944], [6.522615671970333, 45.81953968708761], [6.50978317432716, 45.814194634053564], [6.505537127312874, 45.806338050075794], [6.501479793499224, 45.80524328017725], [6.487326303451607, 45.793909191815885], [6.485344814844942, 45.78354107689441], [6.486571450649069, 45.776521669897875]]]}}, {"type": "Feature", "properties": {"value": "Massif des Bauges", "label": "les Bauges"}, "geometry": {"type": "Polygon", "coordinates": [[[6.0462278, 45.4904052], [6.107996, 45.5209962], [6.1176079, 45.5342687], [6.1729352, 45.5550177], [6.1959231, 45.5737406], [6.2264837, 45.5854793], [6.2702227, 45.5841653], [6.2839939, 45.6073091], [6.3003253, 45.6156227], [6.286069, 45.6299597], [6.2927255, 45.6375225], [6.314339, 45.6416552], [6.321238, 45.6526262], [6.356479, 45.6712223], [6.3915312, 45.6814658], [6.4190017, 45.7426928], [6.3944058, 45.7415204], [6.3704388, 45.7529294], [6.3746339, 45.7627756], [6.3633061, 45.7679518], [6.3165578, 45.7516632], [6.284452, 45.7757216], [6.2628655, 45.7764985], [6.247675, 45.8014604], [6.2229264, 45.8010847], [6.2064423, 45.8361068], [6.1919884, 45.8358001], [6.1736269, 45.8510567], [6.1561007, 45.8828645], [6.1264923, 45.8746844], [6.1029295, 45.8374398], [6.0823491, 45.8545355], [6.0716861, 45.8439483], [6.0726922, 45.8305237], [6.0147149, 45.8265802], [5.9948531, 45.818586], [5.995491, 45.8038777], [5.9852771, 45.7966944], [5.96643467003631, 45.75503804334168], [5.973616993514554, 45.743448198636365], [5.9621455, 45.7328242], [5.9644991, 45.723788], [5.9456704, 45.7024176], [5.9358518, 45.7025556], [5.9208589, 45.6735009], [5.9435234, 45.6768088], [5.9665023, 45.6653152], [5.9655142, 45.6445881], [5.9566568, 45.6456871], [5.9365435, 45.6072274], [5.9429305, 45.5994028], [5.960295, 45.6091378], [5.9654423, 45.5931361], [5.9906311, 45.5798271], [5.9986979, 45.5449776], [6.0048065, 45.5497462], [6.0156671, 45.5399821], [5.9989315, 45.5354202], [5.9906221, 45.5206563], [6.0235184, 45.5069273], [6.0382867, 45.5147899], [6.0462278, 45.4904052]]]}}, {"type": "Feature", "properties": {"value": "Belledonne", "label": "Belledonne"}, "geometry": {"type": "Polygon", "coordinates": [[[5.808479665417881, 45.05039736086729], [5.781545952374485, 45.04675016299671], [5.761345667591937, 45.06038632062796], [5.760223429548462, 45.07734769839617], [5.762019010418022, 45.08622267473499], [5.734187506939844, 45.09604693327361], [5.712191641287736, 45.11505682659895], [5.715782803026855, 45.13216031803497], [5.746307677809373, 45.14387641661221], [5.77324139085277, 45.169833244763815], [5.836535616504754, 45.19704355662333], [5.899942065961086, 45.24312900942101], [5.936751473787063, 45.27725399807483], [5.986129947699959, 45.31672490607992], [6.007228022917285, 45.40062755826243], [6.022939355525934, 45.42583710342196], [6.088478057264868, 45.441902314900105], [6.108902789656111, 45.46205610985444], [6.142121035742968, 45.485664673440354], [6.174890386612435, 45.51932910433661], [6.195988461829763, 45.536625418293305], [6.209006423134071, 45.55234472487159], [6.260180477916527, 45.549829931189926], [6.280380762699076, 45.547000653799124], [6.314653724870683, 45.52466019500406], [6.312200453262428, 45.513583699559994], [6.297480823612907, 45.492332283882426], [6.290026652187829, 45.477585089366784], [6.292102497394814, 45.45833001879832], [6.287290310778624, 45.44545037293313], [6.279175643151324, 45.430316789041534], [6.271438401925292, 45.423876966108935], [6.273891673533547, 45.41698635557106], [6.274929596137038, 45.38768516122775], [6.287479023979258, 45.368752081805916], [6.287007240977672, 45.363729019918495], [6.288611303183068, 45.35915674563635], [6.303519646033224, 45.35200854218117], [6.286724171176719, 45.330757126503606], [6.274363456535133, 45.3223209584619], [6.266465010959986, 45.312542291638295], [6.250753678351339, 45.299518968266106], [6.233246764873131, 45.29667711828003], [6.206313051829733, 45.27646429967145], [6.200477414003664, 45.267302995043174], [6.199130728351494, 45.261141975943744], [6.189928376395, 45.25561228695505], [6.182746052916761, 45.248975949331474], [6.175339281829825, 45.23538483842883], [6.169503644003756, 45.23174945539883], [6.161535753895087, 45.23016878154657], [6.150313373460338, 45.22495224593368], [6.143355497590793, 45.21767991267811], [6.138193202590808, 45.20898351060252], [6.12876640302562, 45.2021835790891], [6.12876640302562, 45.196331824607526], [6.112381727590886, 45.20597898993199], [6.104526061286561, 45.20392317382409], [6.09476259030833, 45.20368595949244], [6.081407957590979, 45.19996947249475], [6.050546411395419, 45.20929976670446], [6.040446269004144, 45.19704355662332], [6.036967331069369, 45.186129354138934], [6.043476311721524, 45.16350340130882], [6.050434187591069, 45.15084160425682], [6.054249796938882, 45.13991854446501], [6.048414159112814, 45.12931009221766], [6.020694879438987, 45.120837746885435], [5.973336434004347, 45.119570745979985], [5.920703469765377, 45.105790294418746], [5.91565339856974, 45.1004039262986], [5.902523213461084, 45.09501704998096], [5.896350904221971, 45.0851926142764], [5.873008352917694, 45.07512873889857], [5.872222786287261, 45.07235491835672], [5.864928239004675, 45.06434970996803], [5.85348141096123, 45.05483711395208], [5.841473463896044, 45.051190199196235], [5.808479665417881, 45.05039736086729]]]}}, {"type": "Feature", "properties": {"value": "Cerces", "label": "les Cerces"}, "geometry": {"type": "Polygon", "coordinates": [[[6.68545258449117, 44.92031753774589], [6.644603119708655, 44.90442244047899], [6.623056149273924, 44.90998622458763], [6.53361377720891, 44.958686069483505], [6.514984625687216, 44.97329590880429], [6.49770215981769, 44.98091695654522], [6.479073008295994, 44.99298154397986], [6.460668304382994, 45.01821371765134], [6.436203515035224, 45.03376008730396], [6.418472153948309, 45.0402629280339], [6.4050052974266, 45.037408113348825], [6.398047421557052, 45.052632145734236], [6.410392040035283, 45.057705922855845], [6.415329887426577, 45.07641158536494], [6.424083344165687, 45.08338501136468], [6.436427962643919, 45.0862375312395], [6.419594391991783, 45.121090153860365], [6.423410001339603, 45.16462601079235], [6.45303708568736, 45.19436957287726], [6.471890684817751, 45.21808999425828], [6.55538519525234, 45.20544033375894], [6.575136584817512, 45.208919270866154], [6.635849662969545, 45.196425734201966], [6.647857610034735, 45.19784918698233], [6.653244352643418, 45.192155162210554], [6.683432556012915, 45.18970339275231], [6.678494708621622, 45.140329186473835], [6.671087937534682, 45.126395391092586], [6.650214309926034, 45.115626035668086], [6.632482948839119, 45.11578442326911], [6.632707396447815, 45.111507803735996], [6.626879715321111, 45.10491253625747], [6.627540211523333, 45.10117743895657], [6.644618756180789, 45.08572186391834], [6.646317174986504, 45.082630748910695], [6.645279252383012, 45.07631972243675], [6.647355097589997, 45.07419458086899], [6.652544710607455, 45.07206943930124], [6.66122551783666, 45.07187624461326], [6.662640866841422, 45.069815501274824], [6.663584432844597, 45.05938298812402], [6.662923936642374, 45.05539029790581], [6.660470665034121, 45.053329554567384], [6.669811968465548, 45.0441850060031], [6.6700950382665, 45.041609076830056], [6.664999781849358, 45.039934722867585], [6.663867502645549, 45.034010085769594], [6.672548309874753, 45.02119483813373], [6.676039504086499, 45.019906873547214], [6.681512186904912, 45.02151682928036], [6.717556408226176, 45.02048645761114], [6.725765432453794, 45.02164562573901], [6.742749620510934, 45.01655816562226], [6.750203791936012, 45.00316333392246], [6.75133607113982, 44.9973030950538], [6.73916406969887, 44.993889988899525], [6.737937433894744, 44.98931771461738], [6.749448939133472, 44.985067431481866], [6.750109435335694, 44.9789495996959], [6.763225002779818, 44.97167259978207], [6.765300847986803, 44.9620772636125], [6.757374893560137, 44.9469436797209], [6.746806954324584, 44.93915149397246], [6.746240814722678, 44.93606037896481], [6.733708820360623, 44.93017029028927], [6.68545258449117, 44.92031753774589]]]}}, {"type": "Feature", "properties": {"value": "Chartreuse", "label": "la Chartreuse"}, "geometry": {"type": "Polygon", "coordinates": [[[5.7489304, 45.1889563], [5.7746042, 45.2001105], [5.7963075, 45.1890386], [5.7973136, 45.2031741], [5.8205171, 45.2031424], [5.7928131, 45.2286509], [5.8180108, 45.2396519], [5.8366149, 45.2166543], [5.8442865, 45.2256077], [5.8366508, 45.2292519], [5.8405944, 45.2345533], [5.8522815, 45.2294544], [5.854689, 45.240569], [5.8795723, 45.2354832], [5.8897592, 45.2574615], [5.9191342, 45.2812263], [5.9054977, 45.2990797], [5.8882231, 45.3053729], [5.9050845, 45.3160811], [5.9030902, 45.3222145], [5.931998, 45.3064659], [5.9566568, 45.3242988], [5.9779019, 45.3556995], [5.9818096, 45.3755867], [5.9609328, 45.3795431], [5.9667269, 45.3881553], [5.9500901, 45.3965834], [5.9578066, 45.411178], [5.9657927, 45.4070914], [5.9876576, 45.4292301], [6.0001802, 45.4253339], [6.0096304, 45.4717869], [5.9711915, 45.4915702], [5.9153702, 45.4764483], [6.0011414, 45.5142297], [5.9731858, 45.5221417], [5.969314, 45.5364081], [5.946398, 45.5456696], [5.9306685, 45.5345833], [5.9073842, 45.5508597], [5.9008265, 45.5706719], [5.8299314, 45.5493499], [5.8177323, 45.5215438], [5.7605186, 45.5420395], [5.7388782, 45.4989754], [5.7197351, 45.4833957], [5.7139679, 45.4974831], [5.6898931, 45.4735444], [5.6923185, 45.4645986], [5.6687018, 45.4644915], [5.6557032, 45.4469171], [5.608326, 45.4214438], [5.6187465, 45.4151256], [5.6373326, 45.4191865], [5.6405666, 45.4005446], [5.6067899, 45.3890701], [5.6041399, 45.3834866], [5.6169768, 45.3713018], [5.5924708, 45.3515079], [5.6033494, 45.3414757], [5.6063767, 45.3160495], [5.5881499, 45.310743], [5.6107695, 45.299541], [5.6210462, 45.2710615], [5.6780533, 45.2131738], [5.7203819, 45.1996991], [5.7389141, 45.2016676], [5.7489304, 45.1889563]]]}}, {"type": "Feature", "properties": {"value": "Ecrins", "label": "les Écrins"}, "geometry": {"type": "Polygon", "coordinates": [[[5.988455428813571, 44.86658081995927], [5.980788000234886, 44.86441113377947], [5.965146263799736, 44.86547435125195], [5.951825575785069, 44.86317519830088], [5.946455664773624, 44.866244235999645], [5.939561616460393, 44.87418705302403], [5.934076499651715, 44.874261003251824], [5.927709001335182, 44.877191480223914], [5.927649249195134, 44.87604613313352], [5.921443324083114, 44.87617540216106], [5.918914484427885, 44.87866640502016], [5.90041767074256, 44.87829802946573], [5.946066049547232, 44.9026339669319], [5.947861630416795, 44.91407923618923], [5.959532906068941, 44.91995994640155], [5.969408600851527, 44.93696293776357], [5.961552934547197, 44.95284903384165], [5.957456765688512, 44.97043775476727], [5.970530838894995, 45.03155926347631], [5.986017723894959, 45.051700583054746], [6.04674750472608, 45.05397157134695], [6.056831442326595, 45.04802750500281], [6.061777820527157, 45.040698399976144], [6.065758859930249, 45.03824877002918], [6.070695374083416, 45.030104942581296], [6.072489498658091, 45.02915436428081], [6.073725947341661, 45.03149272661077], [6.077305894237329, 45.031775855342566], [6.079020859597168, 45.02825571360953], [6.088084323075375, 45.03336596962382], [6.090363549810833, 45.03890198036928], [6.095249902811073, 45.04238944484487], [6.099885504574312, 45.042165842765215], [6.10550833320329, 45.03950952390489], [6.131291438622883, 45.05082846807105], [6.180669912535813, 45.04178940244097], [6.220621586883546, 45.039251864122875], [6.301198278405098, 45.04654698344999], [6.316909611013757, 45.05051133205256], [6.378408255796225, 45.035286735195875], [6.401301911883126, 45.035762565174565], [6.413197635143969, 45.043692482323465], [6.426440044056982, 45.04385106945614], [6.467513956448193, 45.01926481703109], [6.483225289056851, 44.995302892004126], [6.503425573839413, 44.979746080171275], [6.515770192317646, 44.97720579159182], [6.536643819926293, 44.96656711080272], [6.576539382371851, 44.940597270037], [6.619857770850011, 44.92168828394817], [6.629733465632596, 44.90611150329617], [6.630182360849988, 44.892120592227585], [6.616491056719584, 44.87478622107293], [6.595392981502243, 44.861901333059514], [6.580074432208797, 44.846208894857355], [6.564138651991443, 44.792396541068555], [6.56174432252707, 44.77061106909086], [6.560131322414639, 44.770032963906736], [6.570683465206347, 44.758554130768104], [6.577325346326512, 44.74606865862939], [6.58220182404493, 44.74192126203118], [6.579305373418607, 44.734479791438694], [6.585200318584512, 44.727446026339265], [6.584299941594422, 44.7247237485341], [6.587422689715972, 44.718702437914295], [6.584808430353172, 44.717091048333586], [6.590399022208773, 44.71022803213905], [6.597581345687017, 44.70655920755757], [6.598479136121798, 44.69682772046477], [6.607554276785423, 44.68583543899057], [6.605782406669448, 44.67091404658731], [6.600914203078973, 44.666833371902165], [6.597073209323922, 44.65743260783883], [6.594523051271788, 44.658071596566394], [6.590772081732023, 44.65587919608309], [6.595312758031312, 44.65582534445427], [6.594950284812923, 44.64642765559127], [6.585461174817482, 44.64191789253569], [6.566762967253688, 44.62934863664861], [6.566905567208241, 44.631461813334504], [6.563859420157079, 44.631867397740955], [6.559798791785208, 44.63093849177564], [6.558548605675126, 44.62914756357806], [6.55240880549528, 44.62980381407388], [6.545394651044799, 44.61764881295661], [6.540975834144437, 44.61549526121856], [6.54082244588033, 44.61156750013989], [6.532797605075655, 44.59437805234114], [6.522237316012829, 44.58825414668153], [6.521722755715758, 44.5846389480822], [6.516753690598328, 44.58326988825543], [6.517644573550787, 44.58129955226044], [6.514260690885997, 44.57715664229639], [6.518754708641914, 44.574841757562474], [6.517877296176427, 44.56780841365669], [6.513359400673287, 44.564347771693726], [6.512748986439028, 44.56069869615801], [6.508855787253284, 44.55914192993327], [6.499110486542453, 44.546155290190164], [6.495256093413051, 44.54668745523446], [6.494787506299035, 44.548216171828685], [6.490268128143652, 44.54669935683262], [6.485782708217041, 44.551358414223174], [6.478454114904041, 44.547873484360736], [6.366185517032982, 44.51732438857549], [6.362356758136422, 44.52190762928645], [6.359409574524266, 44.52281647213329], [6.352365979310647, 44.51983568792751], [6.332500264764904, 44.521412579546265], [6.334002337141417, 44.5239008780482], [6.327659392768328, 44.52575569704095], [6.323187346568217, 44.53297436401131], [6.323072588694538, 44.53795779644347], [6.320003968456629, 44.54254449689293], [6.311907388004371, 44.5469568462741], [6.312615433819222, 44.548952091917435], [6.291883702644252, 44.54937953001755], [6.191900710411709, 44.590118913112775], [6.175159845189349, 44.59351343481587], [6.169952843825769, 44.59652991038035], [6.173677521161499, 44.598742974706006], [6.172879386022045, 44.60291311618048], [6.170496967554326, 44.60421135741822], [6.170429576420985, 44.60691533327339], [6.168376598686449, 44.607481483156946], [6.169145075409631, 44.60912625640132], [6.16080171424584, 44.61119426015638], [6.15598890231468, 44.6147375373318], [6.155617283436973, 44.619658482984576], [6.161688349307358, 44.62336006554187], [6.164364770477419, 44.62750547453361], [6.160909867668331, 44.627925095450884], [6.158123674255972, 44.63158796255081], [6.144861689206107, 44.6345564347332], [6.139061772780539, 44.64732149922118], [6.139184169074475, 44.65033360997155], [6.133077790879169, 44.648699459492896], [6.116340550143618, 44.6494716333318], [6.114044157841187, 44.65060308818486], [6.115071950111764, 44.65407981712712], [6.105743468916216, 44.65526032686145], [6.091573942554928, 44.659778425353196], [6.075638996171699, 44.6722334728678], [6.068376926505435, 44.6828565792608], [6.068461123676643, 44.685931029712606], [6.064465296563538, 44.68841491897687], [6.06479255271574, 44.692152957002826], [6.060064599844223, 44.69484255119477], [6.058227476558513, 44.698971096704796], [6.055672358693641, 44.70086252760686], [6.047010619616702, 44.70257263305045], [6.044776772690184, 44.7076803869602], [6.03949052700127, 44.70879962822792], [6.032775575008203, 44.71299849498199], [6.032310161632038, 44.71491316477005], [6.024855727708058, 44.71720283748709], [6.004964529193301, 44.73237600130093], [6.003754264185234, 44.7358666877028], [6.004879650028448, 44.74295007288567], [6.003427027555006, 44.746759969057685], [5.998870120091699, 44.75604435034203], [5.995468524656442, 44.7581293013287], [5.989037560872167, 44.76983882534322], [5.98624931435033, 44.77134923209611], [5.986238234666764, 44.774736220172166], [5.979719614727381, 44.78161840837946], [5.977982160642375, 44.790680973086786], [5.961502836609561, 44.79620568479671], [5.960169367196323, 44.79938021776632], [5.953355091031103, 44.799788112215246], [5.949511727324045, 44.804362746503784], [5.958450665679553, 44.808941059826594], [5.960622968299841, 44.81231301068689], [5.965177846677174, 44.81194623322073], [5.979184398994509, 44.81858838314733], [5.996165725866351, 44.81787407614988], [6.005478872398999, 44.820506071452], [6.009409442411303, 44.830381439593964], [6.015071219950324, 44.834949735371225], [6.021827205583127, 44.83754904094819], [6.025502801636815, 44.83667039179972], [6.030215701162598, 44.83809775892118], [6.030598836933007, 44.840246074063096], [6.026518380908534, 44.84574001312961], [6.021590984092406, 44.847020388594565], [6.012087498573884, 44.85493722590725], [6.007106049706453, 44.855229112852214], [5.999146017857985, 44.85854574471475], [5.997183093850645, 44.86199639816792], [5.988455428813571, 44.86658081995927]]]}}, {"type": "Feature", "properties": {"value": "Haut Jura", "label": "le Haut Jura"}, "geometry": {"type": "Polygon", "coordinates": [[[5.8114082, 46.0784325], [5.8216939, 46.089897], [5.8207327, 46.102935], [5.829653, 46.1056631], [5.8559826, 46.0866697], [5.8899838, 46.0871495], [5.8862289, 46.1096179], [5.8930291, 46.1189153], [5.9665023, 46.1383395], [5.9733475, 46.1561638], [5.9521652, 46.1632447], [5.9642026, 46.1980259], [5.9402086, 46.2010104], [5.9347109, 46.2107151], [5.9049048, 46.2233765], [5.9199516, 46.239154], [5.9744165, 46.2147494], [5.9927152, 46.2171674], [6.0166822, 46.231822], [6.0319266, 46.2796988], [6.0286388, 46.2982221], [6.0587323, 46.2927788], [6.065335, 46.3008474], [6.0552199, 46.3154983], [6.0620381, 46.3293079], [6.1243812, 46.3172604], [6.1667368, 46.3641451], [6.1609876, 46.3765542], [6.0975216, 46.408283], [6.0640055, 46.4162293], [6.0862477, 46.4431503], [6.0737791, 46.464409], [6.1554899, 46.545555], [6.113287, 46.5786242], [6.2808947, 46.6895738], [6.3426539, 46.7107793], [6.387938, 46.7345623], [6.3951963, 46.7474717], [6.4361326, 46.7609565], [6.457243, 46.7885741], [6.4269428, 46.7978239], [6.3714898, 46.7658855], [6.3593176, 46.7459452], [6.3172675, 46.7736812], [6.3268615, 46.7806145], [6.3175549, 46.7873624], [6.2888717, 46.7883772], [6.2864463, 46.8015136], [6.2648867, 46.8068877], [6.2362574, 46.7829151], [6.2033342, 46.7726845], [6.2065771, 46.7663347], [6.1836611, 46.75463], [6.1801936, 46.7414453], [6.086113, 46.6961051], [6.0641492, 46.693542], [6.0291508, 46.6718921], [6.00345, 46.6863695], [5.9891129, 46.6766074], [5.9673467, 46.6846009], [5.9594775, 46.696598], [5.9661071, 46.7120604], [5.9427059, 46.7127072], [5.9397235, 46.6619672], [5.9118488, 46.6895923], [5.8842616, 46.682031], [5.8896155, 46.6559681], [5.8814139, 46.6534771], [5.8830219, 46.6447883], [5.8657113, 46.6422598], [5.8557939, 46.6272956], [5.8621091, 46.6151287], [5.8875943, 46.6059833], [5.8716223, 46.5637227], [5.8517964, 46.5443379], [5.8414299, 46.5399386], [5.8154416, 46.5550504], [5.7987958, 46.5466857], [5.7594676, 46.4958517], [5.7169863, 46.5242971], [5.6779096, 46.5185487], [5.672888, 46.4964577], [5.6859135, 46.4866552], [5.6752685, 46.4799687], [5.675538, 46.4664385], [5.6974838, 46.4554114], [5.6980947, 46.43995], [5.6591258, 46.4168796], [5.6752505, 46.4109401], [5.6708129, 46.4012213], [5.6481573, 46.3831232], [5.6284124, 46.338779], [5.6374584, 46.3364408], [5.6125212, 46.3265537], [5.6043196, 46.3015425], [5.6592965, 46.291767], [5.684584, 46.3109316], [5.7145518, 46.308071], [5.7251789, 46.260691], [5.733677, 46.2637714], [5.7514187, 46.2449134], [5.7717476, 46.2371844], [5.7600246, 46.2190631], [5.7629081, 46.2010166], [5.7296615, 46.199226], [5.7296974, 46.1779635], [5.7124228, 46.1742126], [5.7445106, 46.1608741], [5.7422649, 46.1414641], [5.7260143, 46.1253036], [5.7205166, 46.1061177], [5.7903068, 46.0978647], [5.8114082, 46.0784325]], [[5.8982483, 46.4408661], [5.8904779, 46.445063], [5.8945832, 46.4511163], [5.8904779, 46.445063], [5.8982483, 46.4408661]]]}}, {"type": "Feature", "properties": {"value": "Mercantour", "label": "le Mercantour"}, "geometry": {"type": "Polygon", "coordinates": [[[6.895797211245959, 44.385259757400284], [6.8946656337333, 44.388849909384845], [6.896866163034663, 44.39512324544046], [6.894278599971772, 44.399861800318824], [6.897723312038074, 44.40548367473627], [6.893926041152613, 44.410098324217536], [6.892827378751076, 44.420879510922774], [6.900039980520742, 44.42188693154653], [6.902830058608407, 44.42040278085207], [6.917951002292068, 44.42758526532265], [6.925220963057432, 44.422514285467166], [6.932983518328087, 44.425068237283384], [6.932444692046921, 44.42813479435058], [6.933747290058896, 44.42997199201469], [6.946388760895098, 44.42705723283932], [6.94817614083446, 44.42976018539201], [6.939581640463568, 44.43380667073931], [6.936782495239653, 44.43985363165748], [6.920420244131896, 44.44594520927991], [6.912559225999246, 44.45081598052113], [6.907849759619417, 44.46059104671761], [6.906362430451957, 44.467638820341485], [6.902032271692158, 44.47023839953152], [6.891328459430181, 44.472012153302245], [6.876910406704919, 44.48104481688774], [6.875827181181902, 44.48233932250334], [6.877284781937697, 44.48455480975071], [6.876846198618084, 44.48874864966362], [6.870899844129588, 44.490773753335965], [6.866369967702404, 44.494311690525414], [6.864348201266676, 44.49879081238306], [6.861578930928306, 44.50031820416508], [6.861231968601705, 44.50323702938143], [6.848146338582013, 44.50149180549066], [6.843509970538969, 44.499279561364894], [6.840144447347006, 44.493825134319486], [6.833865252338398, 44.4923267755969], [6.829300207158203, 44.49356067633646], [6.81599088589585, 44.50451658160159], [6.810038146609548, 44.50515686357597], [6.807621586757707, 44.507046482400696], [6.802237068028749, 44.505600111840415], [6.799065603605994, 44.50267579475883], [6.781401968774222, 44.498948032173416], [6.774997493667009, 44.49026413877582], [6.77577003908313, 44.488787580264685], [6.773499919219606, 44.48703309974135], [6.769747681270275, 44.47859344628191], [6.770220255651748, 44.475413949046605], [6.766858172427822, 44.47437444669025], [6.764692684928765, 44.47053170612911], [6.769765478863007, 44.46629733092375], [6.767978776237553, 44.4626228576001], [6.76979608152525, 44.45949381384455], [6.767371824491944, 44.45538784883141], [6.778510509714579, 44.442071941386736], [6.738309906148123, 44.43569794608326], [6.730584828622005, 44.437170216898714], [6.726273123177703, 44.43575982884386], [6.721871250832791, 44.43744701911713], [6.7092130506401, 44.43586353607205], [6.705655437377692, 44.437773053347755], [6.680426041257673, 44.44008797751294], [6.677459289642901, 44.438278401823524], [6.685486026111991, 44.429412913762114], [6.704888238953195, 44.418312668264456], [6.710479236767229, 44.41002460201052], [6.671480720849906, 44.38946867292327], [6.62438362829068, 44.386062821960394], [6.610447594456731, 44.38332111717696], [6.60399216459126, 44.38364718935746], [6.585417377769534, 44.38889197225653], [6.58689949753597, 44.38781010928627], [6.583853915977362, 44.38545655107184], [6.5817868238532, 44.38047321387981], [6.584233353996768, 44.37266035060505], [6.581994777131142, 44.36434501511393], [6.579820980841755, 44.36369761608916], [6.578908776221795, 44.365759250760355], [6.570245688518718, 44.366801282270266], [6.568562500479146, 44.36339484509523], [6.570003428436364, 44.359016593164554], [6.564823613544908, 44.353249212528915], [6.565427939450974, 44.34818811372101], [6.559401580063871, 44.34616851105091], [6.558379952268253, 44.34343890173207], [6.545715126431723, 44.337331557732725], [6.547221510343668, 44.334662690249466], [6.544955711789736, 44.33019355058301], [6.545281920860732, 44.32329177565757], [6.542368064205104, 44.3210538009166], [6.542608024735273, 44.31654172592952], [6.539644934601584, 44.31380971314018], [6.538866032400954, 44.3062218862048], [6.534367029242729, 44.303053562923495], [6.53608962840867, 44.299070520086765], [6.535434337511114, 44.292468100464916], [6.532549499467661, 44.28806745659858], [6.539853750812282, 44.27690012250992], [6.539676610923621, 44.27352066967552], [6.543682895026423, 44.270764977392375], [6.546766810902843, 44.26573860004539], [6.540908521354363, 44.25658045187815], [6.542413428974812, 44.25305577219479], [6.54036500658665, 44.24893842306773], [6.543891744642868, 44.246620741603046], [6.54504201233759, 44.24252271839832], [6.541643175612583, 44.2376696525008], [6.555924611824657, 44.233637161345335], [6.559630785216934, 44.236021854778656], [6.567384801254092, 44.23458975771555], [6.580096567063547, 44.234952526095604], [6.594664408654165, 44.22951615072924], [6.597112691596655, 44.22184200360278], [6.596170918565785, 44.218646276425446], [6.598283926541201, 44.216166740570884], [6.597851610637558, 44.214050881229035], [6.601027057813934, 44.20685829651836], [6.60048166005117, 44.20011669558791], [6.602299913777891, 44.19827566811486], [6.602596357869341, 44.191164962917576], [6.604718200891013, 44.188411094471824], [6.603732759604606, 44.178370087896745], [6.607154850456186, 44.17350739654646], [6.615733563056298, 44.17111912716775], [6.609360263150673, 44.16065752889578], [6.6052056519697, 44.15830296561625], [6.61438435940536, 44.15253514069094], [6.627492345003498, 44.15010992044834], [6.6354237594828, 44.1448887966131], [6.646344234265451, 44.142146358509635], [6.651776164058329, 44.13411034894719], [6.664023958896344, 44.12976124260912], [6.66380688807506, 44.12379381359459], [6.665888641459218, 44.11924157948114], [6.676614621630595, 44.116720508191506], [6.679162525651233, 44.11322636825463], [6.677022943787184, 44.11031042874788], [6.679313714912474, 44.10319560600741], [6.691653581938431, 44.09985735451953], [6.698670441094543, 44.09624259899218], [6.705162453964352, 44.09630962413146], [6.713831206318133, 44.108225895130225], [6.712996144350234, 44.116042826794676], [6.719085886066249, 44.1182987741702], [6.752281859980159, 44.09010999927213], [6.752394083784507, 44.08551537317572], [6.757780826393192, 44.078663074830715], [6.77259436856707, 44.06592375268641], [6.803863756627378, 44.05968509619509], [6.814424450604138, 44.05376954659592], [6.823251117566089, 44.05357587961874], [6.828681336241679, 44.0495681185813], [6.829982605731534, 44.04484509009307], [6.847532530463194, 44.043707470529604], [6.853526493668754, 44.04107165014496], [6.85845476483851, 44.04102045836014], [6.860879532683388, 44.03840734292546], [6.865988956179, 44.03734829788337], [6.866244413968987, 44.035077533822495], [6.874846380712596, 44.029018732415295], [6.886695611265184, 44.033729080547126], [6.901678325322828, 44.03191330037716], [6.905285819860024, 44.03330200216713], [6.91424461904195, 44.03797930593158], [6.912701023087891, 44.04036482695783], [6.912762662130294, 44.046748853124676], [6.916407400065974, 44.04448546345429], [6.92370424303849, 44.0432849843465], [6.936148437115841, 44.04415352425962], [6.940316726665386, 44.04086028923266], [6.943536269281666, 44.04113444607664], [6.950068238916965, 44.038465664541214], [6.96916632317842, 44.04074531810854], [6.97464106507814, 44.03901724491157], [6.976411520585243, 44.039951367506156], [6.977111417458255, 44.04438934042362], [6.986422752638948, 44.045708512970876], [7.00212983768297, 44.05236774589217], [7.005130276521588, 44.0571116763731], [7.008920973858447, 44.057633400839386], [7.023129978871737, 44.066650915617195], [7.027459740589681, 44.067430678606314], [7.036458315807936, 44.064391883481306], [7.039124702499752, 44.06168810951582], [7.048016064827063, 44.06051777054851], [7.052711253487092, 44.06244556611601], [7.055686955319606, 44.066388951497075], [7.064836524407321, 44.06989222278756], [7.066210175234411, 44.07212938681102], [7.072968893058253, 44.06914190871293], [7.083346146249188, 44.07074415844721], [7.0822494018587, 44.067044976295755], [7.085489069109122, 44.06351019945781], [7.091701604456727, 44.065223800940736], [7.096243725040658, 44.069059843842226], [7.109445473621004, 44.07053945175998], [7.114326162916696, 44.0665383536673], [7.113131842452049, 44.06436889504854], [7.116498699890266, 44.06362131047478], [7.118574281164107, 44.05386110786984], [7.12277210367397, 44.05343260365273], [7.131788641912631, 44.045003692784974], [7.138013364449663, 44.04316233482245], [7.146771060902861, 44.0455497218928], [7.153675940609853, 44.05053215466923], [7.154971301351719, 44.05316061418122], [7.166325273794337, 44.048458530215136], [7.186556529239543, 44.04953274544454], [7.20686220054047, 44.04671490956006], [7.218071918545781, 44.058493119615335], [7.224463831304332, 44.058192390307624], [7.230018652256456, 44.0617623545636], [7.243035051369584, 44.06584512428354], [7.250665702286842, 44.062555608801475], [7.25527856254134, 44.06277917605113], [7.256371897192052, 44.05863108198448], [7.262109988556018, 44.05335750312611], [7.26304685140404, 44.04943175403075], [7.280786278482019, 44.042621504420815], [7.301112375141934, 44.031562296149794], [7.316474142300805, 44.01770061930852], [7.315479229653445, 44.014594207406645], [7.316486312673039, 44.012194724042565], [7.313917267376678, 44.010628666186356], [7.313040317189407, 44.00754283635859], [7.314579231663645, 43.99863404402498], [7.325445792120998, 43.97872348779253], [7.331602956673393, 43.978803095888004], [7.338836089414538, 43.97204894355988], [7.349539262139996, 43.968188239139785], [7.364300475788525, 43.97058286179365], [7.379907475467713, 43.96735319042889], [7.37589874324375, 43.954400977093215], [7.369143939074854, 43.947927603436035], [7.368121921015974, 43.943268904025985], [7.370279402010324, 43.93937259396191], [7.383086412182331, 43.93617942542496], [7.381056554368704, 43.93409588407887], [7.382517233735387, 43.93291327246262], [7.384793957734173, 43.93253070299193], [7.38672918014364, 43.93451792992568], [7.390289575597933, 43.93365190478007], [7.389627342231917, 43.927935155763144], [7.392147981428531, 43.92751647484833], [7.388076822622691, 43.92323210355855], [7.388408889242225, 43.92126013604472], [7.398725632659428, 43.912083711588096], [7.399449327697766, 43.908939495634776], [7.397368618134149, 43.90061389168076], [7.398796230677201, 43.89783790841983], [7.393564869283861, 43.89055777838138], [7.396348587219612, 43.88862582967837], [7.393789080820001, 43.887190402499975], [7.39400284694189, 43.87878505739882], [7.40078630373791, 43.87540645763897], [7.400018263215677, 43.87169966630905], [7.403408564434487, 43.865162518882265], [7.408832801243667, 43.86406722105454], [7.410015772759504, 43.86233570470113], [7.40817418093606, 43.85478231641682], [7.411055799506753, 43.84499101653238], [7.427217874514347, 43.84868278379828], [7.435938711325993, 43.846009081254174], [7.445997139724314, 43.840100186633116], [7.450580860094122, 43.84319756016541], [7.451783600417918, 43.84624453909495], [7.456281995856659, 43.84791927525316], [7.468081776073427, 43.84859171775045], [7.473128187846885, 43.850924748284164], [7.476436111836833, 43.84826964710028], [7.480887229293105, 43.84764860734629], [7.485742773325542, 43.8497807765504], [7.496554429691036, 43.851115483950984], [7.494887142232966, 43.85574069202798], [7.495294459705107, 43.86440775581924], [7.498108370528702, 43.86403840403858], [7.500439804407352, 43.86685635530764], [7.49770236035828, 43.87156457086177], [7.501206023040686, 43.87497505837457], [7.506308977702381, 43.87622454126875], [7.510571773081069, 43.87951686354155], [7.509540527890964, 43.88144794104737], [7.512943772371709, 43.88298916744734], [7.511836955657889, 43.885493084119645], [7.517485519384476, 43.88236394188105], [7.519661558191925, 43.885636921648455], [7.526877929031326, 43.88643914091527], [7.531365851241852, 43.890610204672626], [7.534780889036672, 43.89040336529648], [7.537389795148486, 43.8930369838775], [7.550686569705491, 43.89382074228564], [7.561756869693624, 43.899475474277594], [7.563220339300429, 43.902964147009534], [7.562562234570164, 43.91039975738569], [7.558178838177881, 43.91728794266174], [7.566718152962086, 43.92207639259777], [7.568470271283543, 43.92864230617692], [7.571118329660044, 43.92833129946558], [7.569700391737018, 43.932302130784976], [7.573989081635784, 43.93668751751916], [7.566862784057213, 43.94343681250169], [7.570752843711468, 43.94455589274694], [7.569322048870034, 43.94739142209278], [7.575366389441521, 43.9457950677422], [7.574964719302231, 43.94828284697971], [7.578585335681717, 43.94989345163041], [7.581541825155576, 43.94816117823331], [7.588989157385182, 43.95539127082262], [7.597093489375152, 43.955889491719205], [7.59871280947617, 43.957444895096515], [7.608816195083978, 43.956038056328964], [7.611330808112227, 43.95401798790404], [7.620709800313623, 43.96080018753285], [7.632186377764278, 43.96476744164459], [7.643222263178397, 43.97393522617252], [7.652736159838531, 43.97398110116489], [7.652623233555111, 43.97553295853058], [7.655804648958641, 43.97717252716775], [7.655455988290744, 43.98524812595538], [7.664601270242399, 43.986790917595584], [7.66326515029041, 43.99174612300156], [7.666682093536556, 43.99427875334817], [7.669312920105019, 43.99932870644993], [7.667844195061983, 44.006397541745436], [7.665210688302149, 44.00915159935001], [7.665460983931847, 44.02980234824511], [7.674887783497043, 44.02931822733562], [7.678142273823124, 44.03407857787418], [7.688466863823098, 44.03932258919197], [7.700362587083941, 44.04117805126634], [7.705300434475235, 44.05545509777462], [7.713492772192606, 44.06158429898358], [7.713941667409998, 44.070454387533815], [7.717532829149119, 44.08311212066602], [7.698230334801337, 44.09681489310515], [7.686334611540495, 44.109869875099136], [7.67133343820548, 44.12294711892863], [7.670024439031461, 44.12820355996221], [7.666353249803074, 44.13075209155343], [7.666897191642748, 44.133411263127925], [7.676583945598985, 44.14219474954391], [7.662024060383735, 44.14462864437488], [7.661623965979938, 44.147671557093105], [7.660409629179724, 44.147232740623274], [7.655913890945995, 44.15207003631365], [7.651612622707054, 44.153909059738425], [7.648763023482466, 44.15322937383727], [7.642779578436985, 44.1584231311494], [7.634857545102239, 44.162314558415964], [7.615509101255642, 44.14965136444025], [7.603446106241516, 44.14984521728893], [7.597727585982986, 44.153019166521986], [7.588991635558969, 44.150351611274836], [7.575933387209917, 44.153843312979504], [7.57207553914556, 44.151841498921925], [7.563799743931285, 44.15651683005906], [7.565404809461933, 44.15185463645029], [7.557262932260815, 44.14731346019319], [7.554587546851605, 44.14778625799832], [7.555535788794228, 44.14713556745122], [7.555885296049504, 44.14676311097813], [7.540828079546079, 44.1452480215643], [7.53404373135858, 44.14820214288661], [7.530677876788666, 44.14656715731039], [7.526586818541076, 44.139710563565274], [7.522196088207924, 44.137977066694006], [7.508417382598355, 44.14260468763995], [7.507039076302036, 44.144704276797235], [7.505453441191031, 44.143165685679875], [7.494218969872773, 44.14114801662624], [7.490922572101136, 44.13698207854657], [7.481256023764179, 44.13350602502], [7.473268510623142, 44.13359816751388], [7.460101232854485, 44.1257801362528], [7.448560801200932, 44.129280346384974], [7.443538663342985, 44.12784714312237], [7.429993517784209, 44.13040619438957], [7.429398818332007, 44.123516858984395], [7.426143249625037, 44.12095581241502], [7.427980725673809, 44.11598295138606], [7.427182563687195, 44.11304580297879], [7.425061161364702, 44.112186831771965], [7.418205995814077, 44.115005798729456], [7.414455029707922, 44.11914965325185], [7.409033828893119, 44.11983863811134], [7.404762244469959, 44.118506028292124], [7.3931451351953, 44.12543610886653], [7.382870744726602, 44.12293974745926], [7.368906474262441, 44.11680554233399], [7.364428374217135, 44.11765478994048], [7.357702658147499, 44.11620094711308], [7.354409376243269, 44.125067639532915], [7.352150089342515, 44.12600929461215], [7.347784708200763, 44.135392521230365], [7.345652341042625, 44.13662555726209], [7.346709974141937, 44.13983142548973], [7.344571688208736, 44.14531038736932], [7.341509659402431, 44.14619528733506], [7.332694746558359, 44.143908514864556], [7.328133575142151, 44.14486764150885], [7.319860706695274, 44.14312994515036], [7.31004585967867, 44.14772250056978], [7.308018128739938, 44.14404610263242], [7.303437936077641, 44.146212811256866], [7.295371127658256, 44.14416142296834], [7.2931288446054, 44.14566450804758], [7.28789760487849, 44.145251930045426], [7.285843942451542, 44.14247218203499], [7.28049090535807, 44.14088682092156], [7.272098997861133, 44.14763856072746], [7.262372148832379, 44.148156229324286], [7.257015714880443, 44.155308687261304], [7.249268178831587, 44.15795118036959], [7.245374007935407, 44.163541905839296], [7.243106136696054, 44.168466509992335], [7.243588918949763, 44.17167564551092], [7.241767652623508, 44.173163108433535], [7.235202070367667, 44.175539731713464], [7.229135152127967, 44.16852697852886], [7.218942860550042, 44.168627756636084], [7.215944926600036, 44.17097217956197], [7.214074173843377, 44.17527780792621], [7.204803717330105, 44.179131982125355], [7.203697073544062, 44.184806105522064], [7.200605538295287, 44.18729337149372], [7.197326298042173, 44.18633102807545], [7.193451126906009, 44.18705229651143], [7.193696231454425, 44.18985903641572], [7.189221624824369, 44.19586906518569], [7.188397026569137, 44.200874246007544], [7.186099678712541, 44.2013576617692], [7.177543364952788, 44.197189815029], [7.175075920345614, 44.20050340426457], [7.167489932054718, 44.20243871475106], [7.163178967679029, 44.208218726944246], [7.156333308898081, 44.20382204377481], [7.149564335332097, 44.202344204761765], [7.148467480469434, 44.200160311452905], [7.142799366417031, 44.2002465983693], [7.113635937065645, 44.217862850403215], [7.107158291757679, 44.21809475483866], [7.100091279838791, 44.22146143867919], [7.092300809768846, 44.220196664242565], [7.086376412444259, 44.22915747704991], [7.076259051137521, 44.232256657045966], [7.07024590112661, 44.232957567177905], [7.059197177822327, 44.22796102477382], [7.056042163997371, 44.229491699298386], [7.03889653498767, 44.22372598754815], [7.035616388112304, 44.22425226767381], [7.031349449990296, 44.22717244637177], [7.030330277772298, 44.231616226790614], [7.026476086589378, 44.23110880826303], [7.022023809335876, 44.23445178746919], [7.017142937506128, 44.23226384229602], [7.012279817959194, 44.23528346864699], [7.008447279568527, 44.23520722910804], [7.004314771739652, 44.241624601006365], [7.000711251711407, 44.243734299200625], [7.000907434778914, 44.247119513144014], [6.998266454396518, 44.24834053085819], [6.996529970380624, 44.25193583317294], [6.998439279805243, 44.25911430634355], [6.995167320723561, 44.26518271530473], [6.99736167614742, 44.273304443078516], [6.995834191569325, 44.28021425150094], [6.983297684586541, 44.284875919095704], [6.981205574394449, 44.28711753485048], [6.971705911786344, 44.28365631398061], [6.968672159084753, 44.28686182865505], [6.971554788567704, 44.29333419101959], [6.96726709104924, 44.29546741696421], [6.963310350257867, 44.293563469220636], [6.957307264166626, 44.29535981310278], [6.95572031136202, 44.29750519698666], [6.958442283934063, 44.30120688349836], [6.957716751373143, 44.30522924043871], [6.960701753614317, 44.30886194434281], [6.960189444685916, 44.311462552839906], [6.953965015138399, 44.31533144345875], [6.952755564237489, 44.31942436213729], [6.944881618046431, 44.32118807361066], [6.941513695570953, 44.32476527102575], [6.938314233048494, 44.324596066846645], [6.936962593899061, 44.32884799351119], [6.935027393622332, 44.33010786408853], [6.926771775504636, 44.33284191937434], [6.925608057789233, 44.33831629572334], [6.920883742778789, 44.34471712575598], [6.922842792994565, 44.34801347070822], [6.922002154834819, 44.351634105975556], [6.911786611349304, 44.353198481846306], [6.905548230343405, 44.35839698709461], [6.899532012017909, 44.357427132918374], [6.887427465725825, 44.36128675584912], [6.887918282725407, 44.367261839503406], [6.89399933888752, 44.36919892054101], [6.896375197782739, 44.372774804099386], [6.897144652411757, 44.3754089745619], [6.89495879565013, 44.38049290862785], [6.895797211245959, 44.385259757400284]]]}}, {"type": "Feature", "properties": {"value": "Mont Blanc", "label": "le Mont Blanc"}, "geometry": {"type": "Polygon", "coordinates": [[[6.692080126140465, 45.72680623685824], [6.688494575328401, 45.7294465642606], [6.697081025957289, 45.73511360844129], [6.698685088162686, 45.74277699773108], [6.693118048743957, 45.75134196223143], [6.686796156522688, 45.75494826307368], [6.68707922632364, 45.7582325727693], [6.690004280933482, 45.76222526298751], [6.691288222317397, 45.770583645164336], [6.70497952644779, 45.77621950715196], [6.72192532090426, 45.780054698644086], [6.715135780741237, 45.781385213650324], [6.71036626905647, 45.78529830905824], [6.725179811230345, 45.80892756588458], [6.726470384980344, 45.83856732327703], [6.729612651502074, 45.85654681721301], [6.72175698519775, 45.865143651306084], [6.710310157154306, 45.88858280643061], [6.707336226339101, 45.9045938761976], [6.735167729817277, 45.93332411732876], [6.777139432643239, 45.93254360088224], [6.817091106990945, 45.94237730535166], [6.824273430469184, 45.94846396275771], [6.823038968621361, 45.96539383995672], [6.83111908253438, 45.97865326411709], [6.834317460958288, 45.99530104420307], [6.83779639889306, 46.000290504079544], [6.852385493458232, 46.00676053979063], [6.856874445632131, 46.00691643492942], [6.870565749762525, 46.00286301853249], [6.888521558458123, 46.01299600265121], [6.915455271501522, 46.0209451982989], [6.935431108675376, 46.0391772704918], [6.943917892387728, 46.05060053390915], [6.949585335998713, 46.054799278929515], [6.964174430563896, 46.05807014037132], [6.996494886215996, 46.06180803050058], [7.044302226868058, 46.08298462815642], [7.05664684534629, 46.07535576098137], [7.074827101650596, 46.07800263030945], [7.093456253172294, 46.04997051032646], [7.130714556215684, 46.032832763141556], [7.143732517520003, 46.003842296577254], [7.128470080128732, 45.94706428581134], [7.117696594911366, 45.87960384844827], [7.068654792411484, 45.85780223325193], [7.064165840237582, 45.84810988165496], [7.047107821976751, 45.8334118041218], [6.982915805889943, 45.784285821960914], [6.909745885455329, 45.77238894420502], [6.863060782846741, 45.767692109508744], [6.798231301497592, 45.77967718313485], [6.787852075462673, 45.77252897967967], [6.780303547437277, 45.769824254047975], [6.768792042198549, 45.77040383811191], [6.759922521768709, 45.768600687690785], [6.745202892119187, 45.75514145776166], [6.740013279101727, 45.745481723362765], [6.723878300447445, 45.734018838542745], [6.723783943847127, 45.73150730759903], [6.719066113831254, 45.72674183862891], [6.711895012207129, 45.72287794486935], [6.705478763385542, 45.72526067935441], [6.692080126140465, 45.72680623685824]]]}}, {"type": "Feature", "properties": {"value": "Morvan", "label": "le Morvan"}, "geometry": {"type": "Polygon", "coordinates": [[[4.2434258, 46.7574302], [4.2709232, 46.7829274], [4.2667281, 46.7884387], [4.2922762, 46.8009724], [4.2800681, 46.8477911], [4.2610508, 46.8437114], [4.2487618, 46.8539163], [4.2286395, 46.8467466], [4.2156589, 46.8570984], [4.2236719, 46.8825115], [4.244396, 46.8911497], [4.2281724, 46.8954714], [4.2259805, 46.888909], [4.1773727, 46.8870733], [4.1572235, 46.8785204], [4.1496866, 46.8903455], [4.1550765, 46.8992894], [4.1416108, 46.9022049], [4.1497046, 46.9317313], [4.1916828, 46.9422813], [4.1955456, 46.9486349], [4.1852509, 46.9559626], [4.183095, 46.9696893], [4.2072956, 46.9899205], [4.2282173, 46.9765361], [4.2440636, 46.9836454], [4.2656232, 46.9794167], [4.2718216, 46.9872549], [4.2524988, 47.0409272], [4.2648506, 47.0639096], [4.2949711, 47.0756694], [4.3345689, 47.0568477], [4.3442527, 47.072433], [4.3493821, 47.0969551], [4.3020588, 47.1072218], [4.3020049, 47.1250601], [4.2883595, 47.1292712], [4.3320536, 47.1448597], [4.3519962, 47.166472], [4.3171326, 47.1816039], [4.3113564, 47.2076991], [4.3299965, 47.2155283], [4.3329699, 47.2350258], [4.3697739, 47.2353064], [4.3833025, 47.2678188], [4.3597756, 47.2866024], [4.3502445, 47.3133525], [4.3641234, 47.3265184], [4.3603685, 47.3326192], [4.328649, 47.3363025], [4.332916, 47.3517389], [4.3463099, 47.3544593], [4.3513225, 47.3814792], [4.3341736, 47.3981186], [4.340372, 47.4044056], [4.3218667, 47.4234447], [4.2908479, 47.4046975], [4.2728007, 47.4086554], [4.2815323, 47.426684], [4.2669796, 47.4360363], [4.2437043, 47.4217368], [4.2156858, 47.4222595], [4.1592087, 47.4318313], [4.1548429, 47.444585], [4.1194224, 47.4435522], [4.1288277, 47.4704596], [4.1205722, 47.4778126], [4.1036569, 47.4621337], [4.0687125, 47.4669982], [4.0362923, 47.4511581], [4.0276235, 47.4365224], [4.0095045, 47.432992], [4.0216677, 47.4223507], [4.0086152, 47.4019006], [3.9704637, 47.404053], [3.9571237, 47.412692], [3.9572765, 47.4256083], [3.9299946, 47.4406298], [3.9369745, 47.4777884], [3.9658284, 47.4886916], [3.9571417, 47.5004544], [3.9322224, 47.4986034], [3.9268415, 47.5076213], [3.8993351, 47.5107645], [3.8626928, 47.4991739], [3.8542487, 47.4875079], [3.8792039, 47.4761976], [3.8296708, 47.4847155], [3.8102582, 47.4757847], [3.7726008, 47.505546], [3.7716486, 47.515588], [3.7641926, 47.5064259], [3.7212531, 47.5003513], [3.6962979, 47.4740785], [3.6838293, 47.4771934], [3.6752594, 47.4327732], [3.701553, 47.4264835], [3.7245499, 47.3994746], [3.7832997, 47.4051717], [3.7856264, 47.3903165], [3.7653065, 47.3706449], [3.7673007, 47.3580559], [3.7594764, 47.3499861], [3.7673367, 47.3474542], [3.7617581, 47.3382505], [3.7670582, 47.3293862], [3.7449866, 47.3036494], [3.7794549, 47.2964243], [3.7693938, 47.2852131], [3.7182976, 47.2733839], [3.7088114, 47.248193], [3.6949684, 47.2386061], [3.6997025, 47.2291334], [3.6840628, 47.2211477], [3.7048139, 47.2061063], [3.7400459, 47.2168828], [3.7695106, 47.1989778], [3.7484451, 47.1765666], [3.7618569, 47.1671072], [3.754374, 47.1551966], [3.771981, 47.1375946], [3.7736878, 47.1138981], [3.7896957, 47.1035165], [3.7711276, 47.0941726], [3.778386, 47.072953], [3.7641297, 47.0733568], [3.760204, 47.0638668], [3.7990921, 47.0533469], [3.8133843, 47.0403457], [3.80874, 47.0220933], [3.7694477, 46.9915137], [3.7876655, 46.9324552], [3.8261763, 46.922615], [3.8068805, 46.8962203], [3.8147138, 46.8805712], [3.8666185, 46.8785756], [3.8874594, 46.8938999], [3.9024433, 46.887589], [3.9091537, 46.8683693], [3.8971702, 46.83289], [3.9156845, 46.8333755], [3.9136992, 46.8258897], [3.9434514, 46.8165463], [3.9456882, 46.8106382], [3.9247035, 46.7973135], [3.9632233, 46.766027], [4.0385111, 46.7868457], [4.0553006, 46.7776739], [4.0619931, 46.7917108], [4.105202, 46.7880697], [4.1107985, 46.7971413], [4.1300854, 46.8014828], [4.1219826, 46.8129315], [4.1455454, 46.8121015], [4.1819271, 46.8408542], [4.1911079, 46.8391029], [4.1687129, 46.8086216], [4.171354, 46.7894105], [4.1903893, 46.785554], [4.1944137, 46.7753484], [4.2168716, 46.7773971], [4.2434258, 46.7574302]], [[3.8335066, 47.325739], [3.797044, 47.3374591], [3.796999, 47.3535708], [3.8270207, 47.3708092], [3.8438103, 47.3602892], [3.8461279, 47.3470647], [3.8335066, 47.325739]], [[3.847125, 47.4268238], [3.815154, 47.4373123], [3.8046437, 47.4481997], [3.8363453, 47.4527132], [3.8514459, 47.439044], [3.847125, 47.4268238]]]}}, {"type": "Feature", "properties": {"value": "Queyras", "label": "le Queyras"}, "geometry": {"type": "Polygon", "coordinates": [[[6.687753172480305, 44.53622201448932], [6.753740769436675, 44.513179203746816], [6.799976976827871, 44.54805991339688], [6.820177261610432, 44.58100138730166], [6.8493554507408, 44.59283017833835], [6.952152455523171, 44.64299583863561], [6.948334, 44.6548157], [6.9631831, 44.6781097], [6.9871681, 44.6898107], [7.0294339, 44.6910049], [7.0748527, 44.6816611], [7.0646389, 44.712133], [7.0328295, 44.7275417], [7.019238, 44.7746676], [6.9993942, 44.7896771], [7.0192739, 44.8139747], [7.0194716, 44.8243038], [7.0033378, 44.8403068], [6.9308168, 44.8612148], [6.9118264, 44.8453642], [6.8833678, 44.8481156], [6.833419670523445, 44.862955297947565], [6.806934852697418, 44.87536279215023], [6.797956948349614, 44.89031185951484], [6.784041196610517, 44.88840368422761], [6.771023235306198, 44.90398526319438], [6.762943121393171, 44.90239549958848], [6.748578474436683, 44.90764155265311], [6.75284297900189, 44.920039411337086], [6.728827084871511, 44.92973330885449], [6.699200000523754, 44.925442769115236], [6.677204134871631, 44.918132222551336], [6.668675125741216, 44.91272817721042], [6.64959707900213, 44.90478012851167], [6.644659231610836, 44.89651299199947], [6.604932004871801, 44.86200076453357], [6.581589453567504, 44.84624867830682], [6.570142625524051, 44.80406280052915], [6.563409197263198, 44.77029187075429], [6.6074593, 44.6795788], [6.5910111, 44.6557295], [6.6132264, 44.6605922], [6.624458946828279, 44.64491213780435], [6.631641270306523, 44.609450356486825], [6.6524738, 44.5876286], [6.6426822, 44.5717092], [6.653983, 44.5561695], [6.687753172480305, 44.53622201448932]]]}}, {"type": "Feature", "properties": {"value": "Taillefer", "label": "le Taillefer"}, "geometry": {"type": "Polygon", "coordinates": [[[5.785313197089812, 44.88029151236854], [5.778613878467275, 44.874624468187854], [5.762195830012039, 44.87191974255616], [5.746249564558391, 44.86657468952211], [5.734454989518709, 44.86728307004469], [5.723981406883474, 44.865029132018286], [5.703034241613001, 44.86940821161245], [5.689729960968241, 44.87681400798493], [5.680105587735862, 44.88434860081607], [5.678029742528877, 44.88769730874102], [5.678690238731099, 44.895618290948114], [5.675953897321894, 44.91126706067432], [5.676331323723164, 44.91886605173478], [5.686993619559035, 44.93573838781818], [5.689635604367923, 44.9486824319127], [5.694636504184747, 44.95396308671743], [5.693126798579669, 44.95847096277025], [5.685672627154591, 44.9655547679961], [5.685389557353639, 44.970513431654204], [5.679728161334592, 44.974312927184435], [5.692749372178398, 44.99949263485088], [5.692843728778716, 45.00284134277583], [5.686427479957129, 45.00619005070078], [5.685389557353639, 45.01056913029495], [5.685861340355225, 45.01262987363338], [5.692938085379034, 45.01733094437417], [5.697467202194271, 45.023963961994745], [5.695580070187922, 45.03310851055903], [5.697184132393319, 45.043090236104554], [5.720112786270458, 45.05397353686064], [5.736625191326012, 45.04933686434917], [5.752382743579024, 45.040900696307475], [5.76549831102315, 45.039741528179604], [5.771159707042195, 45.03632842202533], [5.796730345728224, 45.04173787328871], [5.796635989127906, 45.04656774048816], [5.791257662909811, 45.045923758194895], [5.783709134884416, 45.04824209445063], [5.793050438315844, 45.050238439559735], [5.79654163252759, 45.05320075810873], [5.808053137766318, 45.05667826249233], [5.831831001046313, 45.051655200604905], [5.85393030617788, 45.05766628571678], [5.875196717101746, 45.077838037195626], [5.897192582753868, 45.088297595899384], [5.898090373188649, 45.094952681657546], [5.913801705797308, 45.10113170977145], [5.91649507710165, 45.105725938239765], [5.974402560144995, 45.1215652698443], [5.985849388188446, 45.11760584908349], [6.006947463405788, 45.11507167560248], [6.013456444057947, 45.092259049888455], [6.015476472536203, 45.07593609350818], [6.005824572031684, 45.07309981097045], [6.005164075829462, 45.07052388179741], [6.000068819412319, 45.06601600574459], [5.995256632796129, 45.05590548374042], [5.988557314173591, 45.05036723601839], [5.988934740574861, 45.047855705074674], [5.978049833786288, 45.030706669340134], [5.974234224438471, 45.016904774467754], [5.968623034221093, 45.004051743240964], [5.975580910090642, 44.99579889434663], [5.96323629161241, 44.95991693316569], [5.971316405525435, 44.93577130333633], [5.951116120742872, 44.89985178637865], [5.926875779003797, 44.894764022333], [5.90420657052559, 44.898897864910225], [5.879292885960431, 44.888880733984244], [5.847645773134416, 44.89428702137383], [5.817300084597426, 44.901993715651386], [5.80871363396854, 44.8881480963463], [5.80022153993997, 44.88228785747764], [5.785313197089812, 44.88029151236854]]]}}, {"type": "Feature", "properties": {"value": "Vanoise", "label": "la Vanoise"}, "geometry": {"type": "Polygon", "coordinates": [[[7.113510336741487, 45.43419379743681], [7.13384112487862, 45.426561227581146], [7.152236517177442, 45.4232000000169], [7.156880345376402, 45.41700562284105], [7.167173562998817, 45.41178285792772], [7.18426317311901, 45.4074812470604], [7.185873028285691, 45.40321946802122], [7.178855189891503, 45.3968554149073], [7.178042790241394, 45.392698998459885], [7.179435367651262, 45.390340738595285], [7.174431525978524, 45.385780865434555], [7.165029779598857, 45.38357496076483], [7.163174420301166, 45.381356602019245], [7.162767118988079, 45.37668794643227], [7.158275002217424, 45.369176642686895], [7.160013186064391, 45.367839460957775], [7.160334105084021, 45.36345425429733], [7.16448943261426, 45.36052589101673], [7.158139785145015, 45.358663700018205], [7.152852681972841, 45.35505301845288], [7.152733583173238, 45.3528986159993], [7.138140844166924, 45.35101444807994], [7.133918953436699, 45.347228012816046], [7.133698573716714, 45.3429107154708], [7.131662295220161, 45.340060556340475], [7.134155654205665, 45.3360869157881], [7.134706396187699, 45.33124072827274], [7.131736380889205, 45.329243406704265], [7.126171265992842, 45.32677284515945], [7.114484947815559, 45.329148560422375], [7.110685288240943, 45.32650630110249], [7.112205860709752, 45.32414244983322], [7.109640566616318, 45.31852969781604], [7.11800629433058, 45.311555593295445], [7.117516703052014, 45.30707025530788], [7.120487578620157, 45.30361647825847], [7.122385034555591, 45.29497338485546], [7.136147074502157, 45.281519050825], [7.134466340558784, 45.275824339892004], [7.128140549960703, 45.271761096192634], [7.13166981876228, 45.26977089503618], [7.133713430319154, 45.2659425836326], [7.132145989734306, 45.26154927094605], [7.136344492950681, 45.2599348124147], [7.137585325935407, 45.25569084441947], [7.1312869003497, 45.25117648821559], [7.129999333568851, 45.24793384181979], [7.125203674500352, 45.243943724869006], [7.110597389817642, 45.24634429070622], [7.107720882862954, 45.243169686044624], [7.106141401116676, 45.23710902944121], [7.098321454620318, 45.23427226010325], [7.096071681561542, 45.2309435594545], [7.090527075922791, 45.228603593916304], [7.088715132795191, 45.22588144435136], [7.084527620023583, 45.22623081917604], [7.080746970557509, 45.22445247461493], [7.083223533305225, 45.22195836240393], [7.083073942568273, 45.21781898517844], [7.079427704046729, 45.21602832484677], [7.079925815320525, 45.21276359487534], [7.071844386097294, 45.20994669901835], [7.066833654599741, 45.210152009777495], [7.056960033679275, 45.221178533352145], [7.05118031984885, 45.22533490753785], [7.047202905741078, 45.225810240159504], [7.042428252320682, 45.22523429627451], [7.026341976620966, 45.21543659100346], [7.023279904958582, 45.218575727665765], [7.019581662185949, 45.214668282630235], [7.006879048878019, 45.21685151238902], [7.003553177427241, 45.21991096478358], [6.997490871644312, 45.21501999665805], [6.994652516492833, 45.21544284006599], [6.99306245328322, 45.20997096711186], [6.98579473407116, 45.21142782110481], [6.974474480673742, 45.207782781685985], [6.965749096836422, 45.20794621565478], [6.960544851391751, 45.20270225718908], [6.963381555089357, 45.201412267073295], [6.96726766173159, 45.19589797366486], [6.954389714219451, 45.19168593215675], [6.952312424151682, 45.189689831494775], [6.954189944639612, 45.179613803946594], [6.950580015255165, 45.179895700465856], [6.949038148196157, 45.178014916704086], [6.942895799711094, 45.17618618294401], [6.947093739239564, 45.170434635440884], [6.931867680745107, 45.171221000493986], [6.92301186693781, 45.168819179013816], [6.922188596883, 45.16714286259764], [6.914019105876203, 45.16858884801639], [6.910527639008273, 45.16547988042983], [6.903451852568824, 45.16787924307473], [6.893358560691262, 45.16836382920065], [6.891029613674876, 45.164666370675626], [6.89221658514024, 45.16267983700203], [6.88410116607162, 45.156741891666954], [6.889951837186461, 45.150113508772115], [6.890240505838344, 45.146497568484335], [6.897790790201368, 45.142772252774726], [6.89643765255199, 45.13931359190901], [6.893904950477804, 45.137156718510205], [6.880564858973551, 45.134894830118725], [6.873627042923591, 45.135924178544286], [6.867325338272788, 45.1317125888277], [6.849853183848155, 45.127164441092766], [6.847885258222236, 45.127200297324876], [6.845575582854349, 45.13025786428182], [6.847252787922877, 45.13556060689018], [6.836023232947853, 45.13522281336919], [6.8213929272173, 45.14525832882138], [6.818970281810874, 45.14426615506006], [6.812270636071788, 45.14835697446158], [6.801395960677561, 45.1500833096259], [6.796839263968887, 45.15296071298379], [6.787192337115505, 45.15332945492377], [6.779648143392853, 45.158029077155824], [6.768955987564143, 45.15969941269955], [6.760590807731372, 45.15276036958991], [6.754705874272791, 45.150012535395064], [6.751897461363438, 45.14398941892059], [6.740023710033077, 45.136741990161006], [6.734626699413872, 45.13865816068189], [6.726782043467267, 45.13845586063508], [6.711290159702297, 45.1447612901215], [6.708755997771894, 45.149275794528386], [6.708530420866845, 45.15806954928234], [6.714588178395543, 45.16238888344164], [6.70165760563837, 45.16752024512291], [6.696816306633599, 45.17252148448113], [6.691878598082115, 45.173066245796974], [6.697420207593765, 45.18069634456463], [6.691606005564474, 45.186320763769345], [6.693139275135294, 45.188152601117714], [6.691936445966015, 45.19166893117296], [6.690037813324028, 45.192643430324466], [6.687815725713944, 45.19956868649158], [6.684936107760569, 45.20103360692831], [6.6841497065332, 45.20417226556693], [6.68595339553023, 45.20540839569636], [6.685596623973181, 45.20735872757395], [6.677916007527007, 45.20700915116098], [6.659771960177284, 45.19468579496288], [6.65443152914871, 45.192798566237904], [6.652440012736989, 45.192507955378886], [6.64543432659331, 45.19696017014034], [6.635622007108211, 45.19605884933009], [6.637250827011409, 45.19307089394444], [6.63123362577215, 45.19441996343693], [6.626113128271752, 45.198392350187326], [6.618508569107657, 45.19628917553552], [6.612184929546247, 45.199533161103176], [6.601999051204764, 45.19882557859637], [6.579649640120731, 45.20599690651917], [6.516667982752436, 45.21255611398097], [6.452924861883018, 45.22299098135713], [6.442600271883042, 45.23974600332826], [6.456155520442763, 45.295113140263204], [6.452688360661254, 45.29739429669747], [6.449995307328705, 45.29722347868266], [6.446310439541382, 45.307439608100744], [6.44770702225828, 45.31094652707856], [6.44681466039702, 45.31354721903496], [6.438283426312535, 45.31659992149655], [6.433879942767071, 45.32112246633567], [6.427734575635943, 45.320888186824526], [6.426628270242627, 45.32615404948928], [6.421483056005512, 45.33101806909835], [6.42288456811603, 45.337362184582894], [6.415172565447485, 45.34208571086638], [6.421487880599524, 45.341195075531125], [6.43311032236976, 45.34646374580297], [6.432978011773089, 45.35173825050819], [6.438904358079972, 45.357069478673814], [6.439632822256638, 45.36431141377129], [6.437902633048604, 45.36856424240698], [6.442265572896638, 45.37223248461589], [6.44357810650145, 45.37614722616127], [6.454163479385748, 45.38098191217076], [6.456698664687258, 45.384130970887604], [6.458162429219801, 45.39092361881205], [6.465044926915284, 45.39490246848006], [6.474664197227184, 45.39616714588124], [6.482364428367553, 45.40506969536868], [6.490753172461491, 45.409487502002776], [6.488591444249494, 45.41902720743232], [6.491849863509842, 45.42408594312758], [6.493085947645615, 45.4328674614795], [6.496756654766012, 45.434037255134925], [6.49698964831664, 45.43799065217404], [6.503512895354283, 45.44729822562267], [6.506345933428316, 45.44845148345507], [6.51569335908666, 45.43918344029277], [6.522024190699143, 45.437371090584776], [6.520874004118009, 45.43993676331883], [6.523968760160255, 45.4436478673245], [6.528048765159298, 45.44430458716449], [6.53018403327052, 45.44287550284705], [6.531556254438259, 45.444940815424225], [6.534911275583254, 45.44531002530088], [6.534423944223646, 45.44731110163155], [6.539623224454126, 45.450897876574906], [6.546450445995394, 45.45316162179711], [6.549062467515364, 45.45306269279845], [6.550209041109096, 45.45130795306404], [6.554050793505918, 45.45300945055847], [6.562473429342448, 45.45016792981191], [6.564162325612739, 45.44713108586068], [6.562875667440921, 45.445378582740354], [6.565295613949933, 45.4427186549164], [6.56640005826528, 45.444525861825035], [6.569430946345451, 45.444903961799994], [6.601117867283054, 45.44081679583857], [6.601539336422579, 45.445483576638686], [6.605288068977914, 45.44434887896701], [6.61176578642828, 45.44527393630752], [6.611451798950712, 45.44866536898325], [6.616030968009844, 45.4540750274533], [6.616228871457756, 45.46077750009219], [6.618590522775801, 45.46149949643769], [6.618973708186598, 45.46563010675807], [6.626558502815267, 45.47096949063364], [6.626445399480906, 45.47363177658446], [6.623105602098643, 45.47844527183715], [6.622797388179451, 45.48273664082729], [6.624914486903871, 45.486078140583636], [6.624592467655014, 45.490190450740656], [6.626620785958481, 45.4915527099132], [6.641628176856667, 45.49516301995464], [6.649744032581296, 45.491651696321945], [6.663667433245796, 45.49278012875839], [6.674064976868304, 45.488142054620084], [6.67313285375857, 45.48443917636887], [6.675248788611738, 45.48120319480271], [6.680197092747828, 45.48060504447203], [6.688999559801277, 45.4858050821962], [6.694784505088303, 45.48611796964909], [6.696032612551838, 45.48489855764528], [6.700859502926292, 45.487549325516206], [6.704800091008739, 45.48717085766953], [6.708338577415005, 45.48986815434085], [6.711991345925655, 45.48747246552102], [6.725179461869749, 45.48578413452546], [6.731704092972772, 45.48881856716559], [6.734718438058365, 45.49370028702139], [6.720230029164277, 45.510488268031295], [6.721913172571209, 45.51474750342223], [6.72217308143623, 45.523657347040896], [6.726558295692492, 45.52803549309921], [6.726084104091955, 45.530937330850634], [6.716255240203193, 45.5476322311003], [6.71670285965206, 45.54923642593588], [6.712772632041961, 45.550606412855], [6.709492589550509, 45.55614089355782], [6.705087683531138, 45.55883603608574], [6.701633441832036, 45.56383655512472], [6.706356350349499, 45.566812605078354], [6.710264423469313, 45.566217933782596], [6.720876378958435, 45.56860418078404], [6.733622035066059, 45.57654679845703], [6.740601992016386, 45.577130920711035], [6.740946232131106, 45.58063137756838], [6.747345167988643, 45.58362274472541], [6.749376105296659, 45.59061740001357], [6.753120620163312, 45.59583894214928], [6.76681820273837, 45.60284946472152], [6.773189402896496, 45.611067055286576], [6.781297325625095, 45.61638651434881], [6.784335131452517, 45.61671182264734], [6.787789711637995, 45.629280778177716], [6.78603138193114, 45.632143462421084], [6.786956434204134, 45.641207720269406], [6.792373683356804, 45.64459938681333], [6.817171616815627, 45.67068833324096], [6.823229976004616, 45.67405096770194], [6.823904676425238, 45.67681762013352], [6.830191845210188, 45.68066226521308], [6.840297361500411, 45.67841249903958], [6.842549618469593, 45.686296307042184], [6.846108842867918, 45.69056656913692], [6.856301403520967, 45.68551475466931], [6.866972777469013, 45.68395726506187], [6.869081278626719, 45.68067220830332], [6.878878182283747, 45.678653301635336], [6.882843919140278, 45.680745400343866], [6.893077295699207, 45.675463293651035], [6.899349251039594, 45.68052713462704], [6.903023071022241, 45.68069079537094], [6.906996186968948, 45.67588747699103], [6.905164787418414, 45.67240300844612], [6.906505203596063, 45.66919390561106], [6.902132358661883, 45.66373973567043], [6.915134384409392, 45.660911500733036], [6.916663542398623, 45.65688397885917], [6.914821631489647, 45.65173254584032], [6.921078010925067, 45.650484268407034], [6.930827569764776, 45.645669412456066], [6.957709429580616, 45.65289902555214], [6.960899894499195, 45.65493056208336], [6.970448289137229, 45.65385946155645], [6.974175080986925, 45.64699124783243], [6.989466478073673, 45.6439683511498], [6.992310617719462, 45.6396143578653], [7.001107704471033, 45.63956306708238], [7.001039548877718, 45.63496975684754], [6.996013108371407, 45.629456512148586], [6.987177141120476, 45.62446164471761], [6.984566530444686, 45.620154726673434], [6.983615059394807, 45.61649859064505], [6.986345806498518, 45.61309632945342], [6.979910440209454, 45.5969154879701], [6.980586572832639, 45.59427394330579], [6.977841317229164, 45.58988170200346], [6.980743344513653, 45.58318263843749], [6.995378501307035, 45.575634840326394], [6.993761797688298, 45.571691605448336], [6.996989575988297, 45.568898175027606], [6.989776741689959, 45.56248473797774], [6.989742346592053, 45.55676357884993], [6.992688937683738, 45.54834919986108], [6.99594576749396, 45.54514977280003], [6.991177097421452, 45.530432845144965], [6.997642318651453, 45.52651413790604], [7.005194815441609, 45.51804233153632], [7.001293099386359, 45.51131077301624], [6.99997238649217, 45.5047873418384], [7.010252852993855, 45.499805888034366], [7.022470278990165, 45.49654505797555], [7.039089134097625, 45.49607247702247], [7.045360828714927, 45.49747478481874], [7.054565943484303, 45.494968279277614], [7.055739669646649, 45.48770890672186], [7.050042878685485, 45.48551674532843], [7.045802346290095, 45.47862026310056], [7.049868898476677, 45.47223021214177], [7.060266030421674, 45.470980009925384], [7.065908767502505, 45.473787267266886], [7.077030807034936, 45.47378318086094], [7.086991728597233, 45.47268428161272], [7.089517631741826, 45.47077373646132], [7.103881419145534, 45.46799866221197], [7.104373168874758, 45.46703070792393], [7.100409096417932, 45.464136131328885], [7.099179860926316, 45.45878061831421], [7.101021254153603, 45.454151111572095], [7.110848970312568, 45.44710647815832], [7.114608173383578, 45.44171820504281], [7.113510336741487, 45.43419379743681]]]}}, {"type": "Feature", "properties": {"value": "Vercors", "label": "le Vercors"}, "geometry": {"type": "Polygon", "coordinates": [[[5.7255023, 44.6400844], [5.7537723, 44.6605283], [5.7906212, 44.6533012], [5.8018321, 44.6752288], [5.8294014, 44.6891337], [5.8240744, 44.7019179], [5.8014728, 44.7067767], [5.7553084, 44.6969629], [5.7040595, 44.7292967], [5.6958848, 44.7221676], [5.681778990308718, 44.7477403734924], [5.649682982265314, 44.76973416603253], [5.6465404, 44.7767019], [5.6821855, 44.7854182], [5.678215, 44.7954146], [5.6850871, 44.8081881], [5.6599792, 44.8359689], [5.6560266, 44.8596102], [5.6434502, 44.8599413], [5.6373237, 44.876641], [5.5927942, 44.8937877], [5.6257803, 44.9061831], [5.621702, 44.9123161], [5.6342424, 44.9299482], [5.6260857, 44.966925], [5.6414469, 44.9842353], [5.6517686, 45.036846], [5.6338831, 45.0339512], [5.6290861, 45.0468051], [5.6966394, 45.0790824], [5.713384, 45.0723074], [5.7255472, 45.0907465], [5.7007896, 45.1043167], [5.6897314, 45.12594], [5.7012837, 45.1950338], [5.6210462, 45.2710615], [5.6107695, 45.299541], [5.536362, 45.296154], [5.5144701, 45.2585807], [5.502262, 45.2635885], [5.4978063, 45.2584669], [5.5085592, 45.2525163], [5.4878171, 45.2330351], [5.4817624, 45.2084273], [5.4296152, 45.1984711], [5.4148739, 45.1807443], [5.3688801, 45.1594585], [5.3512102, 45.1313588], [5.2723651, 45.1065232], [5.2728592, 45.0856917], [5.2591239, 45.0680314], [5.2445173, 45.0669718], [5.2274943, 45.0772175], [5.2369535, 45.0498515], [5.2241436, 44.9877552], [5.1829378, 44.9180605], [5.1601386, 44.9184294], [5.1486761, 44.9092051], [5.1499247, 44.8943731], [5.1338718, 44.8897592], [5.1612435, 44.8873344], [5.0681511, 44.8817397], [5.0691392, 44.8420585], [5.0822906, 44.8309362], [5.0737296, 44.8294709], [5.0695615, 44.7818987], [5.0785356, 44.7750949], [5.130593, 44.7798073], [5.1266404, 44.765146], [5.137528, 44.7566499], [5.1834229, 44.7836585], [5.2272338, 44.7849209], [5.2315097, 44.779125], [5.2775843, 44.7656116], [5.291969605907449, 44.75977424645761], [5.316658842863914, 44.76375842035241], [5.330911266016057, 44.7627624026368], [5.367271778624668, 44.75160583102775], [5.387472063407229, 44.7334319467077], [5.3962158, 44.7154462], [5.4373138, 44.7001492], [5.4530523, 44.7049124], [5.4474018, 44.68184], [5.4757527, 44.6868282], [5.5202283, 44.6641447], [5.5321579, 44.6756951], [5.5463423, 44.6666875], [5.5645332, 44.676813], [5.6274512, 44.6511604], [5.651553, 44.6552183], [5.7255023, 44.6400844]]]}}]}
